{
    "CCSDS_OMM_VERS": "3.0",
    "COMMENT": "GENERATED VIA SPACE-TRACK.ORG API",
    "CREATION_DATE": "2025-05-22T22:46:20",
    "ORIGINATOR": "18 SPCS",
    "OBJECT_NAME": "BD-20",
    "OBJECT_ID": "2015-053A",
    "CENTER_NAME": "EARTH",
    "REF_FRAME": "TEME",
    "TIME_SYSTEM": "UTC",
    "MEAN_ELEMENT_THEORY": "SGP4",
    "EPOCH": "2025-05-22T19:50:24.863424",
    "MEAN_MOTION": "1.00272804",
    "ECCENTRICITY": "0.00590410",
    "INCLINATION": "49.8278",
    "RA_OF_ASC_NODE": "263.4170",
    "ARG_OF_PERICENTER": "187.6296",
    "MEAN_ANOMALY": "183.4395",
    "EPHEMERIS_TYPE": "0",
    "CLASSIFICATION_TYPE": "U",
    "NORAD_CAT_ID": "40938",
    "ELEMENT_SET_NO": "999",
    "REV_AT_EPOCH": "3543",
    "BSTAR": "0.00000000000000",
    "MEAN_MOTION_DOT": "-0.00000172",
    "MEAN_MOTION_DDOT": "0.0000000000000",
    "SEMIMAJOR_AXIS": "42164.446",
    "PERIOD": "1436.082",
    "APOAPSIS": "36035.254",
    "PERIAPSIS": "35537.368",
    "OBJECT_TYPE": "PAYLOAD",
    "RCS_SIZE": "LARGE",
    "COUNTRY_CODE": "PRC",
    "LAUNCH_DATE": "2015-09-29",
    "SITE": "XSC",
    "DECAY_DATE": null,
    "FILE": "4736442",
    "GP_ID": "288162847",
    "TLE_LINE0": "0 BD-20",
    "TLE_LINE1": "1 40938U 15053A   25142.82667666 -.00000172  00000-0  00000+0 0  9999",
    "TLE_LINE2": "2 40938  49.8278 263.4170 0059041 187.6296 183.4395  1.00272804 35437"
}